[{"COMMENT":"GENERATED VIA SPACETRACK.ORG API","ORIGINATOR":"18 SPCS","NORAD_CAT_ID":"43476","OBJECT_NAME":"GRACE-FO 1","OBJECT_TYPE":"PAYLOAD","CLASSIFICATION_TYPE":"U","INTLDES":"18047A","EPOCH":"2023-11-22 10:36:20","EPOCH_MICROSECONDS":"48544","MEAN_MOTION":"15.27378814","ECCENTRICITY":"0.0015476","INCLINATION":"88.9815","RA_OF_ASC_NODE":"327.6398","ARG_OF_PERICENTER":"138.7429","MEAN_ANOMALY":"221.4993","EPHEMERIS_TYPE":"0","ELEMENT_SET_NO":"999","REV_AT_EPOCH":"30614","BSTAR":"0.00016062","MEAN_MOTION_DOT":"0.00004346","MEAN_MOTION_DDOT":"0","FILE":"4101244","TLE_LINE0":"0 GRACE-FO 1","TLE_LINE1":"1 43476U 18047A   23326.44189871  .00004346  00000-0  16062-3 0  9997","TLE_LINE2":"2 43476  88.9815 327.6398 0015476 138.7429 221.4993 15.27378814306140","OBJECT_ID":"2018-047A","OBJECT_NUMBER":"43476","SEMIMAJOR_AXIS":"6861.789","PERIOD":"94.279","APOGEE":"494.273","PERIGEE":"473.034","DECAYED":"0"},{"COMMENT":"GENERATED VIA SPACETRACK.ORG API","ORIGINATOR":"18 SPCS","NORAD_CAT_ID":"43476","OBJECT_NAME":"GRACE-FO 1","OBJECT_TYPE":"PAYLOAD","CLASSIFICATION_TYPE":"U","INTLDES":"18047A","EPOCH":"2023-11-22 13:45:01","EPOCH_MICROSECONDS":"477728","MEAN_MOTION":"15.2738079","ECCENTRICITY":"0.0015494","INCLINATION":"88.9815","RA_OF_ASC_NODE":"327.6219","ARG_OF_PERICENTER":"138.2828","MEAN_ANOMALY":"221.9606","EPHEMERIS_TYPE":"0","ELEMENT_SET_NO":"999","REV_AT_EPOCH":"30616","BSTAR":"0.00017444","MEAN_MOTION_DOT":"0.00004718","MEAN_MOTION_DDOT":"0","FILE":"4101817","TLE_LINE0":"0 GRACE-FO 1","TLE_LINE1":"1 43476U 18047A   23326.57293377  .00004718  00000-0  17444-3 0  9996","TLE_LINE2":"2 43476  88.9815 327.6219 0015494 138.2828 221.9606 15.27380790306164","OBJECT_ID":"2018-047A","OBJECT_NUMBER":"43476","SEMIMAJOR_AXIS":"6861.783","PERIOD":"94.279","APOGEE":"494.279","PERIGEE":"473.016","DECAYED":"0"},{"COMMENT":"GENERATED VIA SPACETRACK.ORG API","ORIGINATOR":"18 SPCS","NORAD_CAT_ID":"43476","OBJECT_NAME":"GRACE-FO 1","OBJECT_TYPE":"PAYLOAD","CLASSIFICATION_TYPE":"U","INTLDES":"18047A","EPOCH":"2023-11-22 20:02:24","EPOCH_MICROSECONDS":"355968","MEAN_MOTION":"15.27383055","ECCENTRICITY":"0.0015529","INCLINATION":"88.9814","RA_OF_ASC_NODE":"327.586","ARG_OF_PERICENTER":"137.3918","MEAN_ANOMALY":"222.854","EPHEMERIS_TYPE":"0","ELEMENT_SET_NO":"999","REV_AT_EPOCH":"30620","BSTAR":"0.00018111","MEAN_MOTION_DOT":"0.00004897","MEAN_MOTION_DDOT":"0","FILE":"4102346","TLE_LINE0":"0 GRACE-FO 1","TLE_LINE1":"1 43476U 18047A   23326.83500412  .00004897  00000-0  18111-3 0  9996","TLE_LINE2":"2 43476  88.9814 327.5860 0015529 137.3918 222.8540 15.27383055306202","OBJECT_ID":"2018-047A","OBJECT_NUMBER":"43476","SEMIMAJOR_AXIS":"6861.776","PERIOD":"94.279","APOGEE":"494.297","PERIGEE":"472.985","DECAYED":"0"},{"COMMENT":"GENERATED VIA SPACETRACK.ORG API","ORIGINATOR":"18 SPCS","NORAD_CAT_ID":"43476","OBJECT_NAME":"GRACE-FO 1","OBJECT_TYPE":"PAYLOAD","CLASSIFICATION_TYPE":"U","INTLDES":"18047A","EPOCH":"2023-11-23 11:45:51","EPOCH_MICROSECONDS":"306624","MEAN_MOTION":"15.27389503","ECCENTRICITY":"0.0015637","INCLINATION":"88.9812","RA_OF_ASC_NODE":"327.4963","ARG_OF_PERICENTER":"135.2321","MEAN_ANOMALY":"225.0193","EPHEMERIS_TYPE":"0","ELEMENT_SET_NO":"999","REV_AT_EPOCH":"30630","BSTAR":"0.00019266","MEAN_MOTION_DOT":"0.00005209","MEAN_MOTION_DDOT":"0","FILE":"4102980","TLE_LINE0":"0 GRACE-FO 1","TLE_LINE1":"1 43476U 18047A   23327.49017716  .00005209  00000-0  19266-3 0  9999","TLE_LINE2":"2 43476  88.9812 327.4963 0015637 135.2321 225.0193 15.27389503306302","OBJECT_ID":"2018-047A","OBJECT_NUMBER":"43476","SEMIMAJOR_AXIS":"6861.757","PERIOD":"94.279","APOGEE":"494.351","PERIGEE":"472.892","DECAYED":"0"},{"COMMENT":"GENERATED VIA SPACETRACK.ORG API","ORIGINATOR":"18 SPCS","NORAD_CAT_ID":"43476","OBJECT_NAME":"GRACE-FO 1","OBJECT_TYPE":"PAYLOAD","CLASSIFICATION_TYPE":"U","INTLDES":"18047A","EPOCH":"2023-11-23 13:20:11","EPOCH_MICROSECONDS":"997024","MEAN_MOTION":"15.27389693","ECCENTRICITY":"0.0015643","INCLINATION":"88.9812","RA_OF_ASC_NODE":"327.4873","ARG_OF_PERICENTER":"135.0081","MEAN_ANOMALY":"225.2439","EPHEMERIS_TYPE":"0","ELEMENT_SET_NO":"999","REV_AT_EPOCH":"30631","BSTAR":"0.00018701","MEAN_MOTION_DOT":"0.00005057","MEAN_MOTION_DDOT":"0","FILE":"4103560","TLE_LINE0":"0 GRACE-FO 1","TLE_LINE1":"1 43476U 18047A   23327.55569441  .00005057  00000-0  18701-3 0  9997","TLE_LINE2":"2 43476  88.9812 327.4873 0015643 135.0081 225.2439 15.27389693306316","OBJECT_ID":"2018-047A","OBJECT_NUMBER":"43476","SEMIMAJOR_AXIS":"6861.756","PERIOD":"94.278","APOGEE":"494.355","PERIGEE":"472.887","DECAYED":"0"},{"COMMENT":"GENERATED VIA SPACETRACK.ORG API","ORIGINATOR":"18 SPCS","NORAD_CAT_ID":"43476","OBJECT_NAME":"GRACE-FO 1","OBJECT_TYPE":"PAYLOAD","CLASSIFICATION_TYPE":"U","INTLDES":"18047A","EPOCH":"2023-11-23 22:46:16","EPOCH_MICROSECONDS":"28832","MEAN_MOTION":"15.27393079","ECCENTRICITY":"0.001568","INCLINATION":"88.9811","RA_OF_ASC_NODE":"327.4334","ARG_OF_PERICENTER":"133.6436","MEAN_ANOMALY":"226.6117","EPHEMERIS_TYPE":"0","ELEMENT_SET_NO":"999","REV_AT_EPOCH":"30637","BSTAR":"0.00017469","MEAN_MOTION_DOT":"0.00004727","MEAN_MOTION_DDOT":"0","FILE":"4104120","TLE_LINE0":"0 GRACE-FO 1","TLE_LINE1":"1 43476U 18047A   23327.94879663  .00004727  00000-0  17469-3 0  9993","TLE_LINE2":"2 43476  88.9811 327.4334 0015680 133.6436 226.6117 15.27393079306373","OBJECT_ID":"2018-047A","OBJECT_NUMBER":"43476","SEMIMAJOR_AXIS":"6861.746","PERIOD":"94.278","APOGEE":"494.370","PERIGEE":"472.852","DECAYED":"0"},{"COMMENT":"GENERATED VIA SPACETRACK.ORG API","ORIGINATOR":"18 SPCS","NORAD_CAT_ID":"43476","OBJECT_NAME":"GRACE-FO 1","OBJECT_TYPE":"PAYLOAD","CLASSIFICATION_TYPE":"U","INTLDES":"18047A","EPOCH":"2023-11-24 12:55:21","EPOCH_MICROSECONDS":"923616","MEAN_MOTION":"15.27399397","ECCENTRICITY":"0.0015767","INCLINATION":"88.9809","RA_OF_ASC_NODE":"327.3525","ARG_OF_PERICENTER":"131.7148","MEAN_ANOMALY":"228.5453","EPHEMERIS_TYPE":"0","ELEMENT_SET_NO":"999","REV_AT_EPOCH":"30646","BSTAR":"0.00018238","MEAN_MOTION_DOT":"0.00004934","MEAN_MOTION_DDOT":"0","FILE":"4105170","TLE_LINE0":"0 GRACE-FO 1","TLE_LINE1":"1 43476U 18047A   23328.53844819  .00004934  00000-0  18238-3 0  9999","TLE_LINE2":"2 43476  88.9809 327.3525 0015767 131.7148 228.5453 15.27399397306469","OBJECT_ID":"2018-047A","OBJECT_NUMBER":"43476","SEMIMAJOR_AXIS":"6861.727","PERIOD":"94.278","APOGEE":"494.411","PERIGEE":"472.773","DECAYED":"0"},{"COMMENT":"GENERATED VIA SPACETRACK.ORG API","ORIGINATOR":"18 SPCS","NORAD_CAT_ID":"43476","OBJECT_NAME":"GRACE-FO 1","OBJECT_TYPE":"PAYLOAD","CLASSIFICATION_TYPE":"U","INTLDES":"18047A","EPOCH":"2023-11-24 20:47:05","EPOCH_MICROSECONDS":"114688","MEAN_MOTION":"15.27402674","ECCENTRICITY":"0.0015809","INCLINATION":"88.9807","RA_OF_ASC_NODE":"327.3076","ARG_OF_PERICENTER":"130.6074","MEAN_ANOMALY":"229.6553","EPHEMERIS_TYPE":"0","ELEMENT_SET_NO":"999","REV_AT_EPOCH":"30651","BSTAR":"0.00018313","MEAN_MOTION_DOT":"0.00004955","MEAN_MOTION_DDOT":"0","FILE":"4105440","TLE_LINE0":"0 GRACE-FO 1","TLE_LINE1":"1 43476U 18047A   23328.86603142  .00004955  00000-0  18313-3 0  9994","TLE_LINE2":"2 43476  88.9807 327.3076 0015809 130.6074 229.6553 15.27402674306513","OBJECT_ID":"2018-047A","OBJECT_NUMBER":"43476","SEMIMAJOR_AXIS":"6861.717","PERIOD":"94.278","APOGEE":"494.430","PERIGEE":"472.734","DECAYED":"0"},{"COMMENT":"GENERATED VIA SPACETRACK.ORG API","ORIGINATOR":"18 SPCS","NORAD_CAT_ID":"43476","OBJECT_NAME":"GRACE-FO 1","OBJECT_TYPE":"PAYLOAD","CLASSIFICATION_TYPE":"U","INTLDES":"18047A","EPOCH":"2023-11-24 22:21:25","EPOCH_MICROSECONDS":"732512","MEAN_MOTION":"15.27403517","ECCENTRICITY":"0.0015817","INCLINATION":"88.9807","RA_OF_ASC_NODE":"327.2986","ARG_OF_PERICENTER":"130.3868","MEAN_ANOMALY":"229.8765","EPHEMERIS_TYPE":"0","ELEMENT_SET_NO":"999","REV_AT_EPOCH":"30652","BSTAR":"0.00018273","MEAN_MOTION_DOT":"0.00004945","MEAN_MOTION_DDOT":"0","FILE":"4105877","TLE_LINE0":"0 GRACE-FO 1","TLE_LINE1":"1 43476U 18047A   23328.93154783  .00004945  00000-0  18273-3 0  9998","TLE_LINE2":"2 43476  88.9807 327.2986 0015817 130.3868 229.8765 15.27403517306524","OBJECT_ID":"2018-047A","OBJECT_NUMBER":"43476","SEMIMAJOR_AXIS":"6861.715","PERIOD":"94.278","APOGEE":"494.433","PERIGEE":"472.726","DECAYED":"0"},{"COMMENT":"GENERATED VIA SPACETRACK.ORG API","ORIGINATOR":"18 SPCS","NORAD_CAT_ID":"43476","OBJECT_NAME":"GRACE-FO 1","OBJECT_TYPE":"PAYLOAD","CLASSIFICATION_TYPE":"U","INTLDES":"18047A","EPOCH":"2023-11-25 14:04:51","EPOCH_MICROSECONDS":"852864","MEAN_MOTION":"15.27412142","ECCENTRICITY":"0.001591","INCLINATION":"88.9806","RA_OF_ASC_NODE":"327.2086","ARG_OF_PERICENTER":"128.2821","MEAN_ANOMALY":"231.9862","EPHEMERIS_TYPE":"0","ELEMENT_SET_NO":"999","REV_AT_EPOCH":"30662","BSTAR":"0.00020846","MEAN_MOTION_DOT":"0.00005638","MEAN_MOTION_DDOT":"0","FILE":"4106483","TLE_LINE0":"0 GRACE-FO 1","TLE_LINE1":"1 43476U 18047A   23329.58671126  .00005638  00000-0  20846-3 0  9994","TLE_LINE2":"2 43476  88.9806 327.2086 0015910 128.2821 231.9862 15.27412142306620","OBJECT_ID":"2018-047A","OBJECT_NUMBER":"43476","SEMIMAJOR_AXIS":"6861.689","PERIOD":"94.277","APOGEE":"494.471","PERIGEE":"472.637","DECAYED":"0"}]